SatCatId,ObjectName,LaunchYear,OrbitalPeriod,LaunchMass,StatusCode,Inclination,Status,UcsData,OrbitClassEstimated,LaunchSiteCountry,Owner,UseType,Purpose,LaunchVehicleClass,TLE1,TLE2,MeanMotion,Eccentricity,OrbitClass
58368,STARLINK-30889,2023,95.84,-1.0,+,43.0,Active,0,LEO,USA,USA,Unknown,Unknown,Unknown,1 58368U 23177T   25192.36585138  .00002301  00000+0  18540-3 0  9994,2 58368  43.0029 222.9412 0001535 277.6730  82.3938 15.02525646 91928,15.02525646,0.0001535,LEO
58369,STARLINK-30870,2023,95.84,-1.0,+,43.0,Active,0,LEO,USA,USA,Unknown,Unknown,Unknown,1 58369U 23177U   25192.42787152  .00000775  00000+0  72463-4 0  9990,2 58369  43.0024 222.5423 0001650 284.1317  75.9341 15.02534968 91938,15.02534968,0.000165,LEO
58370,STARLINK-30888,2023,95.84,-1.0,+,43.0,Active,0,LEO,USA,USA,Unknown,Unknown,Unknown,1 58370U 23177V   25192.46560782 -.00000877  00000+0 -49848-4 0  9990,2 58370  43.0021 222.8158 0001523 276.8118  83.2551 15.02532528 91936,15.02532528,0.0001523,LEO
58371,STARLINK-30859,2023,95.84,-1.0,+,43.0,Active,0,LEO,USA,USA,Unknown,Unknown,Unknown,1 58371U 23177W   25192.38913871  .00000452  00000+0  48566-4 0  9996,2 58371  43.0028 223.0831 0001349 277.4443  82.6246 15.02531796 91928,15.02531796,0.0001349,LEO
58372,STARLINK-30884,2023,95.84,-1.0,+,43.0,Active,0,LEO,USA,USA,Unknown,Unknown,Unknown,1 58372U 23177X   25192.42231773 -.00000133  00000+0  52603-5 0  9991,2 58372  43.0026 222.5026 0001461 279.6639  80.4038 15.02538065 91935,15.02538065,0.0001461,LEO
58373,STARLINK-30852,2023,95.84,-1.0,+,43.0,Active,0,LEO,USA,USA,Unknown,Unknown,Unknown,1 58373U 23177Y   25191.38642252 -.00000114  00000+0  66290-5 0  9990,2 58373  43.0036 228.4580 0001624 280.7448  79.3211 15.02532362 91764,15.02532362,0.0001624,LEO
58374,STARLINK-30911,2023,94.11,-1.0,+,53.16,Active,0,LEO,USA,USA,Unknown,Unknown,Unknown,1 58374U 23178A   25191.76303116 -.00000378  00000+0 -63510-6 0  9993,2 58374  53.1608  44.6327 0001168  98.2477 261.8657 15.30191236 92840,15.30191236,0.0001168,LEO
58375,STARLINK-30894,2023,94.11,-1.0,+,53.16,Active,0,LEO,USA,USA,Unknown,Unknown,Unknown,1 58375U 23178B   25192.29611654  .00003986  00000+0  14676-3 0  9994,2 58375  53.1604  42.2785 0001150  73.5803 286.5324 15.30169265 92863,15.30169265,0.000115,LEO
58376,STARLINK-30910,2023,94.11,-1.0,+,53.16,Active,0,LEO,USA,USA,Unknown,Unknown,Unknown,1 58376U 23178C   25192.29926981 -.00001358  00000+0 -33749-4 0  9993,2 58376  53.1614  42.2973 0001165  96.1633 263.9501 15.30195284 92936,15.30195284,0.0001165,LEO
58377,STARLINK-30914,2023,94.11,-1.0,+,53.16,Active,0,LEO,USA,USA,Unknown,Unknown,Unknown,1 58377U 23178D   25192.28766069 -.00000276  00000+0  28106-5 0  9991,2 58377  53.1603  42.2127 0001159  92.1119 268.0014 15.30192815 92936,15.30192815,0.0001159,LEO
58378,STARLINK-30920,2023,94.11,-1.0,P,53.16,Active,0,LEO,USA,USA,Unknown,Unknown,Unknown,1 58378U 23178E   25191.72988213 -.00000208  00000+0  51156-5 0  9993,2 58378  53.1613  32.3905 0001219  95.7763 264.3376 15.30192974 93020,15.30192974,0.0001219,LEO
58379,STARLINK-30882,2023,94.11,-1.0,+,53.16,Active,0,LEO,USA,USA,Unknown,Unknown,Unknown,1 58379U 23178F   25191.97586160  .00000198  00000+0  18802-4 0  9993,2 58379  53.1610  43.8315 0001237  95.0592 265.0550 15.30186192 92883,15.30186192,0.0001237,LEO
58380,STARLINK-30915,2023,94.11,-1.0,+,53.16,Active,0,LEO,USA,USA,Unknown,Unknown,Unknown,1 58380U 23178G   25191.61588313 -.00002144  00000+0 -60289-4 0  9999,2 58380  53.1618 315.7545 0001251  84.7078 275.4066 15.30199860 93962,15.3019986,0.0001251,LEO
58381,STARLINK-30923,2023,94.11,-1.0,+,53.16,Active,0,LEO,USA,USA,Unknown,Unknown,Unknown,1 58381U 23178H   25192.57318161  .00000060  00000+0  14147-4 0  9993,2 58381  53.1612  41.1142 0001302 101.7385 258.3761 15.30192341 92876,15.30192341,0.0001302,LEO
58382,STARLINK-30927,2023,94.1,-1.0,+,53.16,Active,0,LEO,USA,USA,Unknown,Unknown,Unknown,1 58382U 23178J   25192.58690688 -.00004508  00000+0 -14012-3 0  9995,2 58382  53.1606  41.2465 0000781  95.6866 264.4223 15.30210588 92947,15.30210588,7.81e-05,LEO
58383,STARLINK-30921,2023,94.11,-1.0,+,53.16,Active,0,LEO,USA,USA,Unknown,Unknown,Unknown,1 58383U 23178K   25192.30876689 -.00000234  00000+0  42263-5 0  9995,2 58383  53.1623  42.3560 0001422  92.3996 267.7167 15.30188090 92907,15.3018809,0.0001422,LEO
58384,STARLINK-30825,2023,94.11,-1.0,+,53.16,Active,0,LEO,USA,USA,Unknown,Unknown,Unknown,1 58384U 23178L   25192.29293378 -.00002424  00000+0 -69723-4 0  9995,2 58384  53.1609  42.2272 0001446  84.8016 275.3150 15.30201134 92920,15.30201134,0.0001446,LEO
58385,STARLINK-30930,2023,94.11,-1.0,+,53.16,Active,0,LEO,USA,USA,Unknown,Unknown,Unknown,1 58385U 23178M   25191.75988219 -.00000636  00000+0 -93416-5 0  9991,2 58385  53.1611  44.6119 0001513  59.1208 300.9942 15.30183842 92720,15.30183842,0.0001513,LEO
58386,STARLINK-30929,2023,94.11,-1.0,+,53.16,Active,0,LEO,USA,USA,Unknown,Unknown,Unknown,1 58386U 23178N   25191.82209776  .00000478  00000+0  28303-4 0  9998,2 58386  53.1587  44.7962 0002111  67.9864 292.1363 15.30193421 92835,15.30193421,0.0002111,LEO
58387,STARLINK-30898,2023,94.11,-1.0,+,53.16,Active,0,LEO,USA,USA,Unknown,Unknown,Unknown,1 58387U 23178P   25191.81260777  .00000336  00000+0  23486-4 0  9996,2 58387  53.1623  44.8221 0002442 144.4408 215.6758 15.30191867 92850,15.30191867,0.0002442,LEO
58388,STARLINK-30913,2023,94.11,-1.0,+,53.16,Active,0,LEO,USA,USA,Unknown,Unknown,Unknown,1 58388U 23178Q   25192.32142587  .00000771  00000+0  38175-4 0  9996,2 58388  53.1609  42.4326 0001278  83.7003 276.4144 15.30196836 92931,15.30196836,0.0001278,LEO
58389,STARLINK-30938,2023,94.11,-1.0,+,53.16,Active,0,LEO,USA,USA,Unknown,Unknown,Unknown,1 58389U 23178R   25191.80101955  .00012075  00000+0  41912-3 0  9995,2 58389  53.1610  44.8721 0001063 120.0954 240.0151 15.30202772 92854,15.30202772,0.0001063,LEO
58390,STARLINK-30868,2023,94.11,-1.0,+,53.16,Active,0,LEO,USA,USA,Unknown,Unknown,Unknown,1 58390U 23178S   25191.98852078  .00000091  00000+0  15206-4 0  9998,2 58390  53.1611  43.9102 0001305  84.6274 275.4876 15.30195788 92875,15.30195788,0.0001305,LEO
58391,STARLINK-30916,2023,94.11,-1.0,+,53.16,Active,0,LEO,USA,USA,Unknown,Unknown,Unknown,1 58391U 23178T   25192.59006193  .00001286  00000+0  55554-4 0  9993,2 58391  53.1603  41.1620 0001125  63.4953 296.6163 15.30178578 92974,15.30178578,0.0001125,LEO
58392,STARLINK-30937,2023,93.72,-1.0,P,53.16,Active,0,LEO,USA,USA,Unknown,Unknown,Unknown,1 58392U 23178U   25192.56705283  .00084526  00000+0  23078-2 0  9999,2 58392  53.1585  40.3194 0003412 233.5622 126.5068 15.36709790 92983,15.3670979,0.0003412,LEO
58393,STARLINK-30939,2023,94.11,-1.0,+,53.16,Active,0,LEO,USA,USA,Unknown,Unknown,Unknown,1 58393U 23178V   25192.30560013 -.00000449  00000+0 -30476-5 0  9999,2 58393  53.1615  42.3334 0001339  83.9196 276.1957 15.30192793 92763,15.30192793,0.0001339,LEO
58394,STARLINK-30887,2023,94.11,-1.0,+,53.16,Active,0,LEO,USA,USA,Unknown,Unknown,Unknown,1 58394U 23178W   25192.27612799  .00003440  00000+0  12820-3 0  9998,2 58394  53.1602  42.6833 0001268  70.6367 289.4771 15.30208198 92905,15.30208198,0.0001268,LEO
58395,STARLINK-30934,2023,94.11,-1.0,+,53.16,Active,0,LEO,USA,USA,Unknown,Unknown,Unknown,1 58395U 23178X   25191.99169907  .00000876  00000+0  41721-4 0  9998,2 58395  53.1608  44.0023 0001205  81.1926 278.9211 15.30192904 92817,15.30192904,0.0001205,LEO
58400,MALLIGYONG-1,2023,94.57,-1.0,+,97.35,Active,0,LEO,Democratic People's Republic of Korea,North Korea,Unknown,Unknown,Unknown,1 58400U 23179A   25192.55839127  .00002216  00000+0  97882-4 0  9996,2 58400  97.3529  77.9041 0002599 269.3161  90.7778 15.22761106 90946,15.22761106,0.0002599,LEO
58402,STARLINK-30964,2023,95.84,-1.0,+,43.0,Active,0,LEO,USA,USA,Unknown,Unknown,Unknown,1 58402U 23180A   25191.54452728  .00001317  00000+0  11260-3 0  9992,2 58402  43.0036 291.4807 0001630 262.1357  97.9301 15.02532318 91171,15.02532318,0.000163,LEO
58403,STARLINK-30844,2023,95.84,-1.0,+,43.0,Active,0,LEO,USA,USA,Unknown,Unknown,Unknown,1 58403U 23180B   25192.53182103  .00000143  00000+0  25637-4 0  9990,2 58403  43.0042 286.8501 0001602 267.1265  92.9394 15.02535161 91222,15.02535161,0.0001602,LEO
58404,STARLINK-30876,2023,95.84,-1.0,+,43.0,Active,0,LEO,USA,USA,Unknown,Unknown,Unknown,1 58404U 23180C   25192.52849158  .00000415  00000+0  45824-4 0  9992,2 58404  43.0018 286.8234 0001337 272.1226  87.9463 15.02532884 91317,15.02532884,0.0001337,LEO
58405,STARLINK-30952,2023,95.84,-1.0,+,43.0,Active,0,LEO,USA,USA,Unknown,Unknown,Unknown,1 58405U 23180D   25192.52516880 -.00000890  00000+0 -50787-4 0  9999,2 58405  43.0050 286.8008 0002246 274.2289  85.8297 15.02529792 91210,15.02529792,0.0002246,LEO
58406,STARLINK-30925,2023,95.84,-1.0,+,43.0,Active,0,LEO,USA,USA,Unknown,Unknown,Unknown,1 58406U 23180E   25191.59114164  .00000570  00000+0  57275-4 0  9997,2 58406  43.0034 291.8301 0001391 269.6399  90.4284 15.02534781 91071,15.02534781,0.0001391,LEO
58407,STARLINK-30954,2023,95.84,-1.0,+,43.0,Active,0,LEO,USA,USA,Unknown,Unknown,Unknown,1 58407U 23180F   25192.53836506 -.00000528  00000+0 -24048-4 0  9991,2 58407  43.0028 286.0372 0001474 273.1436  86.9237 15.02534242 91321,15.02534242,0.0001474,LEO
58408,STARLINK-30906,2023,95.84,-1.0,+,43.0,Active,0,LEO,USA,USA,Unknown,Unknown,Unknown,1 58408U 23180G   25191.54794990 -.00000163  00000+0  30287-5 0  9999,2 58408  43.0039 292.2004 0001554 267.0785  92.9880 15.02534646 90792,15.02534646,0.0001554,LEO
58409,STARLINK-30940,2023,94.37,-1.0,+,43.0,Active,0,LEO,USA,USA,Unknown,Unknown,Unknown,1 58409U 23180H   25192.01218905  .00003457  00000+0  14201-3 0  9994,2 58409  43.0015 190.3064 0001314 278.3450  81.7252 15.25887910 92408,15.2588791,0.0001314,LEO
